[
    {
        "CCSDS_OMM_VERS": "3.0",
        "COMMENT": "GENERATED VIA SPACE-TRACK.ORG API",
        "CREATION_DATE": "2025-05-03T17:28:03",
        "ORIGINATOR": "18 SPCS",
        "OBJECT_NAME": "BD-18",
        "OBJECT_ID": "2015-037A",
        "CENTER_NAME": "EARTH",
        "REF_FRAME": "TEME",
        "TIME_SYSTEM": "UTC",
        "MEAN_ELEMENT_THEORY": "SGP4",
        "EPOCH": "2025-05-03T02:08:58.892928",
        "MEAN_MOTION": "1.86229147",
        "ECCENTRICITY": "0.00078760",
        "INCLINATION": "55.2289",
        "RA_OF_ASC_NODE": "316.1256",
        "ARG_OF_PERICENTER": "261.9928",
        "MEAN_ANOMALY": "97.9209",
        "EPHEMERIS_TYPE": "0",
        "CLASSIFICATION_TYPE": "U",
        "NORAD_CAT_ID": "40748",
        "ELEMENT_SET_NO": "999",
        "REV_AT_EPOCH": "6648",
        "BSTAR": "0.00000000000000",
        "MEAN_MOTION_DOT": "-0.00000067",
        "MEAN_MOTION_DDOT": "0.0000000000000",
        "SEMIMAJOR_AXIS": "27906.374",
        "PERIOD": "773.241",
        "APOAPSIS": "21550.218",
        "PERIAPSIS": "21506.260",
        "OBJECT_TYPE": "PAYLOAD",
        "RCS_SIZE": "LARGE",
        "COUNTRY_CODE": "PRC",
        "LAUNCH_DATE": "2015-07-25",
        "SITE": "XSC",
        "DECAY_DATE": null,
        "FILE": "4717971",
        "GP_ID": "286761168",
        "TLE_LINE0": "0 BD-18",
        "TLE_LINE1": "1 40748U 15037A   25123.08957052 -.00000067  00000-0  00000-0 0  9992",
        "TLE_LINE2": "2 40748  55.2289 316.1256 0007876 261.9928  97.9209  1.86229147 66485"
    }
]